CCSDS_OMM_VERS = 2.0
CREATION_DATE  = 
ORIGINATOR     = 

OBJECT_NAME    = ATLAS CENTAUR R/B
OBJECT_ID      = 1972-065B
CENTER_NAME    = EARTH
REF_FRAME      = TEME
TIME_SYSTEM    = UTC
MEAN_ELEMENT_THEORY = SGP/SGP4

EPOCH          = 2026-01-04T13:38:41.180352
MEAN_MOTION    = 14.77483428
ECCENTRICITY   = .0034102
INCLINATION    = 35.0032
RA_OF_ASC_NODE = 321.4683
ARG_OF_PERICENTER = 192.1355
MEAN_ANOMALY   = 167.8526

EPHEMERIS_TYPE = 0
CLASSIFICATION_TYPE = U
NORAD_CAT_ID   = 6155
ELEMENT_SET_NO = 999
REV_AT_EPOCH   = 83177
BSTAR          = .25505556E-3
MEAN_MOTION_DOT = .1843E-4
MEAN_MOTION_DDOT = 0

CCSDS_OMM_VERS = 2.0
CREATION_DATE  = 
ORIGINATOR     = 

OBJECT_NAME    = SL-8 R/B
OBJECT_ID      = 1975-112B
CENTER_NAME    = EARTH
REF_FRAME      = TEME
TIME_SYSTEM    = UTC
MEAN_ELEMENT_THEORY = SGP/SGP4

EPOCH          = 2026-01-04T15:31:23.386080
MEAN_MOTION    = 14.38163828
ECCENTRICITY   = .00166761
INCLINATION    = 74.0609
RA_OF_ASC_NODE = 136.7237
ARG_OF_PERICENTER = 245.8707
MEAN_ANOMALY   = 114.0704

EPHEMERIS_TYPE = 0
CLASSIFICATION_TYPE = U
NORAD_CAT_ID   = 8459
ELEMENT_SET_NO = 999
REV_AT_EPOCH   = 62266
BSTAR          = .15842134E-3
MEAN_MOTION_DOT = .455E-5
MEAN_MOTION_DDOT = 0

CCSDS_OMM_VERS = 2.0
CREATION_DATE  = 
ORIGINATOR     = 

OBJECT_NAME    = SL-3 R/B
OBJECT_ID      = 1977-057B
CENTER_NAME    = EARTH
REF_FRAME      = TEME
TIME_SYSTEM    = UTC
MEAN_ELEMENT_THEORY = SGP/SGP4

EPOCH          = 2026-01-04T13:55:19.051104
MEAN_MOTION    = 15.43598094
ECCENTRICITY   = .0007964
INCLINATION    = 97.5690
RA_OF_ASC_NODE = 173.8092
ARG_OF_PERICENTER = 146.6668
MEAN_ANOMALY   = 213.5083

EPHEMERIS_TYPE = 0
CLASSIFICATION_TYPE = U
NORAD_CAT_ID   = 10114
ELEMENT_SET_NO = 999
REV_AT_EPOCH   = 65843
BSTAR          = .32927477E-3
MEAN_MOTION_DOT = .14739E-3
MEAN_MOTION_DDOT = 0

CCSDS_OMM_VERS = 2.0
CREATION_DATE  = 
ORIGINATOR     = 

OBJECT_NAME    = SEASAT 1
OBJECT_ID      = 1978-064A
CENTER_NAME    = EARTH
REF_FRAME      = TEME
TIME_SYSTEM    = UTC
MEAN_ELEMENT_THEORY = SGP/SGP4

EPOCH          = 2026-01-04T15:34:17.622048
MEAN_MOTION    = 14.46092455
ECCENTRICITY   = .00012098
INCLINATION    = 108.0142
RA_OF_ASC_NODE = 351.1006
ARG_OF_PERICENTER = 263.3858
MEAN_ANOMALY   = 96.7150

EPHEMERIS_TYPE = 0
CLASSIFICATION_TYPE = U
NORAD_CAT_ID   = 10967
ELEMENT_SET_NO = 999
REV_AT_EPOCH   = 49725
BSTAR          = .2327986E-3
MEAN_MOTION_DOT = .695E-5
MEAN_MOTION_DDOT = 0

CCSDS_OMM_VERS = 2.0
CREATION_DATE  = 
ORIGINATOR     = 

OBJECT_NAME    = SL-14 R/B
OBJECT_ID      = 1979-011B
CENTER_NAME    = EARTH
REF_FRAME      = TEME
TIME_SYSTEM    = UTC
MEAN_ELEMENT_THEORY = SGP/SGP4

EPOCH          = 2026-01-04T09:25:08.083488
MEAN_MOTION    = 14.91806894
ECCENTRICITY   = .00146557
INCLINATION    = 82.5248
RA_OF_ASC_NODE = 157.5601
ARG_OF_PERICENTER = 272.6671
MEAN_ANOMALY   = 87.2871

EPHEMERIS_TYPE = 0
CLASSIFICATION_TYPE = U
NORAD_CAT_ID   = 11267
ELEMENT_SET_NO = 999
REV_AT_EPOCH   = 51919
BSTAR          = .10944113E-3
MEAN_MOTION_DOT = .113E-4
MEAN_MOTION_DDOT = 0

CCSDS_OMM_VERS = 2.0
CREATION_DATE  = 
ORIGINATOR     = 

OBJECT_NAME    = SL-8 R/B
OBJECT_ID      = 1979-089B
CENTER_NAME    = EARTH
REF_FRAME      = TEME
TIME_SYSTEM    = UTC
MEAN_ELEMENT_THEORY = SGP/SGP4

EPOCH          = 2026-01-04T15:45:17.449344
MEAN_MOTION    = 14.42299240
ECCENTRICITY   = .00150379
INCLINATION    = 74.0672
RA_OF_ASC_NODE = 209.5647
ARG_OF_PERICENTER = 34.8613
MEAN_ANOMALY   = 325.3525

EPHEMERIS_TYPE = 0
CLASSIFICATION_TYPE = U
NORAD_CAT_ID   = 11574
ELEMENT_SET_NO = 999
REV_AT_EPOCH   = 42687
BSTAR          = .10835351E-3
MEAN_MOTION_DOT = .332E-5
MEAN_MOTION_DDOT = 0

CCSDS_OMM_VERS = 2.0
CREATION_DATE  = 
ORIGINATOR     = 

OBJECT_NAME    = SL-14 R/B
OBJECT_ID      = 1980-005B
CENTER_NAME    = EARTH
REF_FRAME      = TEME
TIME_SYSTEM    = UTC
MEAN_ELEMENT_THEORY = SGP/SGP4

EPOCH          = 2026-01-04T11:56:27.303936
MEAN_MOTION    = 14.90826314
ECCENTRICITY   = .00163611
INCLINATION    = 82.5138
RA_OF_ASC_NODE = 8.1125
ARG_OF_PERICENTER = 23.0368
MEAN_ANOMALY   = 337.1581

EPHEMERIS_TYPE = 0
CLASSIFICATION_TYPE = U
NORAD_CAT_ID   = 11672
ELEMENT_SET_NO = 999
REV_AT_EPOCH   = 46692
BSTAR          = .10263598E-3
MEAN_MOTION_DOT = .1037E-4
MEAN_MOTION_DDOT = 0

CCSDS_OMM_VERS = 2.0
CREATION_DATE  = 
ORIGINATOR     = 

OBJECT_NAME    = SL-8 R/B
OBJECT_ID      = 1981-003B
CENTER_NAME    = EARTH
REF_FRAME      = TEME
TIME_SYSTEM    = UTC
MEAN_ELEMENT_THEORY = SGP/SGP4

EPOCH          = 2026-01-04T08:57:50.539104
MEAN_MOTION    = 15.07957984
ECCENTRICITY   = .02750717
INCLINATION    = 82.9369
RA_OF_ASC_NODE = 349.3746
ARG_OF_PERICENTER = 42.6491
MEAN_ANOMALY   = 319.5736

EPHEMERIS_TYPE = 0
CLASSIFICATION_TYPE = U
NORAD_CAT_ID   = 12139
ELEMENT_SET_NO = 999
REV_AT_EPOCH   = 30497
BSTAR          = .74109944E-3
MEAN_MOTION_DOT = .28082E-3
MEAN_MOTION_DDOT = 0

CCSDS_OMM_VERS = 2.0
CREATION_DATE  = 
ORIGINATOR     = 

OBJECT_NAME    = SL-3 R/B
OBJECT_ID      = 1981-046B
CENTER_NAME    = EARTH
REF_FRAME      = TEME
TIME_SYSTEM    = UTC
MEAN_ELEMENT_THEORY = SGP/SGP4

EPOCH          = 2026-01-04T13:37:50.679552
MEAN_MOTION    = 15.40183795
ECCENTRICITY   = .00180016
INCLINATION    = 81.2317
RA_OF_ASC_NODE = 6.6156
ARG_OF_PERICENTER = 239.5327
MEAN_ANOMALY   = 120.4138

EPHEMERIS_TYPE = 0
CLASSIFICATION_TYPE = U
NORAD_CAT_ID   = 12465
ELEMENT_SET_NO = 999
REV_AT_EPOCH   = 42855
BSTAR          = .31852926E-3
MEAN_MOTION_DOT = .1289E-3
MEAN_MOTION_DDOT = 0

CCSDS_OMM_VERS = 2.0
CREATION_DATE  = 
ORIGINATOR     = 

OBJECT_NAME    = SL-3 R/B
OBJECT_ID      = 1981-103B
CENTER_NAME    = EARTH
REF_FRAME      = TEME
TIME_SYSTEM    = UTC
MEAN_ELEMENT_THEORY = SGP/SGP4

EPOCH          = 2026-01-04T13:31:01.610976
MEAN_MOTION    = 15.20562402
ECCENTRICITY   = .00136717
INCLINATION    = 81.1607
RA_OF_ASC_NODE = 288.6202
ARG_OF_PERICENTER = 135.6685
MEAN_ANOMALY   = 224.5643

EPHEMERIS_TYPE = 0
CLASSIFICATION_TYPE = U
NORAD_CAT_ID   = 12904
ELEMENT_SET_NO = 999
REV_AT_EPOCH   = 96348
BSTAR          = .33127886E-3
MEAN_MOTION_DOT = .7295E-4
MEAN_MOTION_DDOT = 0

CCSDS_OMM_VERS = 2.0
CREATION_DATE  = 
ORIGINATOR     = 

OBJECT_NAME    = SL-3 R/B
OBJECT_ID      = 1982-013B
CENTER_NAME    = EARTH
REF_FRAME      = TEME
TIME_SYSTEM    = UTC
MEAN_ELEMENT_THEORY = SGP/SGP4

EPOCH          = 2026-01-04T15:58:49.173888
MEAN_MOTION    = 15.21322850
ECCENTRICITY   = .0023646
INCLINATION    = 81.1728
RA_OF_ASC_NODE = 235.7713
ARG_OF_PERICENTER = 37.4526
MEAN_ANOMALY   = 322.8347

EPHEMERIS_TYPE = 0
CLASSIFICATION_TYPE = U
NORAD_CAT_ID   = 13068
ELEMENT_SET_NO = 999
REV_AT_EPOCH   = 39461
BSTAR          = .24431574E-3
MEAN_MOTION_DOT = .5535E-4
MEAN_MOTION_DDOT = 0

CCSDS_OMM_VERS = 2.0
CREATION_DATE  = 
ORIGINATOR     = 

OBJECT_NAME    = SL-3 R/B
OBJECT_ID      = 1982-039B
CENTER_NAME    = EARTH
REF_FRAME      = TEME
TIME_SYSTEM    = UTC
MEAN_ELEMENT_THEORY = SGP/SGP4

EPOCH          = 2026-01-04T13:45:39.082464
MEAN_MOTION    = 15.09689972
ECCENTRICITY   = .00296232
INCLINATION    = 81.1702
RA_OF_ASC_NODE = 289.8245
ARG_OF_PERICENTER = 174.8242
MEAN_ANOMALY   = 185.3296

EPHEMERIS_TYPE = 0
CLASSIFICATION_TYPE = U
NORAD_CAT_ID   = 13154
ELEMENT_SET_NO = 999
REV_AT_EPOCH   = 37196
BSTAR          = .25532393E-3
MEAN_MOTION_DOT = .4177E-4
MEAN_MOTION_DDOT = 0

