ATLAS CENTAUR R/B       
1 06155U 72065B   26004.56853218  .00001843  00000+0  25506-3 0  9993
2 06155  35.0032 321.4683 0034102 192.1355 167.8526 14.77483428831774
SL-8 R/B                
1 08459U 75112B   26004.64679845  .00000455  00000+0  15842-3 0  9999
2 08459  74.0609 136.7237 0016676 245.8707 114.0704 14.38163828622665
SL-3 R/B                
1 10114U 77057B   26004.58008161  .00014739  00000+0  32927-3 0  9993
2 10114  97.5690 173.8092 0007964 146.6668 213.5083 15.43598094658434
SEASAT 1                
1 10967U 78064A   26004.64881507  .00000695  00000+0  23280-3 0  9996
2 10967 108.0142 351.1006 0001209 263.3858  96.7150 14.46092455497259
SL-14 R/B               
1 11267U 79011B   26004.39245467  .00001130  00000+0  10944-3 0  9992
2 11267  82.5248 157.5601 0014655 272.6671  87.2871 14.91806894519193
SL-8 R/B                
1 11574U 79089B   26004.65645196  .00000332  00000+0  10835-3 0  9992
2 11574  74.0672 209.5647 0015037  34.8613 325.3525 14.42299240426879
SL-14 R/B               
1 11672U 80005B   26004.49753824  .00001037  00000+0  10264-3 0  9990
2 11672  82.5138   8.1125 0016361  23.0368 337.1581 14.90826314466925
SL-8 R/B                
1 12139U 81003B   26004.37350161  .00028082  00000+0  74110-3 0  9991
2 12139  82.9369 349.3746 0275071  42.6491 319.5736 15.07957984304971
SL-3 R/B                
1 12465U 81046B   26004.56794768  .00012890  00000+0  31853-3 0  9993
2 12465  81.2317   6.6156 0018001 239.5327 120.4138 15.40183795428553
SL-3 R/B                
1 12904U 81103B   26004.56321309  .00007295  00000+0  33128-3 0  9992
2 12904  81.1607 288.6202 0013671 135.6685 224.5643 15.20562402963484
SL-3 R/B                
1 13068U 82013B   26004.66584692  .00005535  00000+0  24432-3 0  9995
2 13068  81.1728 235.7713 0023646  37.4526 322.8347 15.21322850394614
SL-3 R/B                
1 13154U 82039B   26004.57336901  .00004177  00000+0  25532-3 0  9990
2 13154  81.1702 289.8245 0029623 174.8242 185.3296 15.09689972371969
